{"type": "FeatureCollection", "features": [ {"type": "Feature", "properties": {"norad_id": 30725, "name": "FENGYUN 1C DEB", "group": "fengyun-1c-debris", "lat": -78.2406917110995, "lon": 95.16939093640639, "alt_km": 895.5456338493959, "timestamp": "2025-12-02T19:35:50.834264+00:00", "meta": {"OBJECT_NAME": "FENGYUN 1C DEB", "OBJECT_ID": "1999-025ASK", "EPOCH": "2025-12-02T03:17:52.473696", "MEAN_MOTION": 14.15990578, "ECCENTRICITY": 0.00879122, "INCLINATION": 99.0087, "RA_OF_ASC_NODE": 44.8354, "ARG_OF_PERICENTER": 60.8296, "MEAN_ANOMALY": 357.3245, "EPHEMERIS_TYPE": 0, "CLASSIFICATION_TYPE": "U", "NORAD_CAT_ID": 30725, "ELEMENT_SET_NO": 999, "REV_AT_EPOCH": 96198, "BSTAR": 0.001433398, "MEAN_MOTION_DOT": 2.89e-05, "MEAN_MOTION_DDOT": 0}, "tle": {"line1": "1 30725U 99025ASK 25336.13741289  .00002890  00000+0  14334-2 0  9991", "line2": "2 30725  99.0087  44.8354 0087912  60.8296 357.3245 14.15990578961989"}}, "geometry": {"type": "Point", "coordinates": [95.16939093640639, -78.2406917110995]}}, {"type": "Feature", "properties": {"norad_id": 30726, "name": "FENGYUN 1C DEB", "group": "fengyun-1c-debris", "lat": -11.292727851125017, "lon": 156.41398959336632, "alt_km": 839.9472439089623, "timestamp": "2025-12-02T19:35:50.834274+00:00", "meta": {"OBJECT_NAME": "FENGYUN 1C DEB", "OBJECT_ID": "1999-025ASL", "EPOCH": "2025-11-29T12:53:39.035904", "MEAN_MOTION": 14.09215956, "ECCENTRICITY": 0.00781479, "INCLINATION": 99.2682, "RA_OF_ASC_NODE": 334.9104, "ARG_OF_PERICENTER": 263.1597, "MEAN_ANOMALY": 221.508, "EPHEMERIS_TYPE": 0, "CLASSIFICATION_TYPE": "U", "NORAD_CAT_ID": 30726, "ELEMENT_SET_NO": 999, "REV_AT_EPOCH": 95797, "BSTAR": 0.0012898883, "MEAN_MOTION_DOT": 2.26e-05, "MEAN_MOTION_DDOT": 0}, "tle": {"line1": "1 30726U 99025ASL 25333.53725736  .00002260  00000+0  12899-2 0  9997", "line2": "2 30726  99.2682 334.9104 0078147 263.1597 221.5080 14.09215956957977"}}, "geometry": {"type": "Point", "coordinates": [156.41398959336632, -11.292727851125017]}}, {"type": "Feature", "properties": {"norad_id": 30728, "name": "FENGYUN 1C DEB", "group": "fengyun-1c-debris", "lat": -45.46761959899311, "lon": -7.420901062862345, "alt_km": 885.9205107633479, "timestamp": "2025-12-02T19:35:50.834285+00:00", "meta": {"OBJECT_NAME": "FENGYUN 1C DEB", "OBJECT_ID": "1999-025ASN", "EPOCH": "2025-12-02T06:19:14.552832", "MEAN_MOTION": 14.23468055, "ECCENTRICITY": 0.0099496, "INCLINATION": 98.5298, "RA_OF_ASC_NODE": 343.2681, "ARG_OF_PERICENTER": 112.1665, "MEAN_ANOMALY": 249.0109, "EPHEMERIS_TYPE": 0, "CLASSIFICATION_TYPE": "U", "NORAD_CAT_ID": 30728, "ELEMENT_SET_NO": 999, "REV_AT_EPOCH": 97540, "BSTAR": 9.9284e-05, "MEAN_MOTION_DOT": 1.96e-06, "MEAN_MOTION_DDOT": 0}, "tle": {"line1": "1 30728U 99025ASN 25336.26336288  .00000196  00000+0  99284-4 0  9993", "line2": "2 30728  98.5298 343.2681 0099496 112.1665 249.0109 14.23468055975407"}}, "geometry": {"type": "Point", "coordinates": [-7.420901062862345, -45.46761959899311]}}, {"type": "Feature", "properties": {"norad_id": 30730, "name": "FENGYUN 1C DEB", "group": "fengyun-1c-debris", "lat": -3.2879994349466646, "lon": -164.38903368177907, "alt_km": 824.8685475120928, "timestamp": "2025-12-02T19:35:50.834295+00:00", "meta": {"OBJECT_NAME": "FENGYUN 1C DEB", "OBJECT_ID": "1999-025ASQ", "EPOCH": "2025-12-02T02:12:09.856800", "MEAN_MOTION": 14.25396436, "ECCENTRICITY": 0.00789583, "INCLINATION": 98.62, "RA_OF_ASC_NODE": 15.398, "ARG_OF_PERICENTER": 80.2034, "MEAN_ANOMALY": 345.081, "EPHEMERIS_TYPE": 0, "CLASSIFICATION_TYPE": "U", "NORAD_CAT_ID": 30730, "ELEMENT_SET_NO": 999, "REV_AT_EPOCH": 96854, "BSTAR": 0.0011347902, "MEAN_MOTION_DOT": 2.723e-05, "MEAN_MOTION_DDOT": 0}, "tle": {"line1": "1 30730U 99025ASQ 25336.09178075  .00002723  00000+0  11348-2 0  9996", "line2": "2 30730  98.6200  15.3980 0078958  80.2034 345.0810 14.25396436968546"}}, "geometry": {"type": "Point", "coordinates": [-164.38903368177907, -3.2879994349466646]}}, {"type": "Feature", "properties": {"norad_id": 30731, "name": "FENGYUN 1C DEB", "group": "fengyun-1c-debris", "lat": 47.95056272511141, "lon": -114.18298811406058, "alt_km": 757.0410900702182, "timestamp": "2025-12-02T19:35:50.834306+00:00", "meta": {"OBJECT_NAME": "FENGYUN 1C DEB", "OBJECT_ID": "1999-025ASR", "EPOCH": "2025-12-02T04:08:10.188960", "MEAN_MOTION": 14.41518595, "ECCENTRICITY": 0.00139132, "INCLINATION": 98.8608, "RA_OF_ASC_NODE": 55.1897, "ARG_OF_PERICENTER": 275.9762, "MEAN_ANOMALY": 114.0636, "EPHEMERIS_TYPE": 0, "CLASSIFICATION_TYPE": "U", "NORAD_CAT_ID": 30731, "ELEMENT_SET_NO": 999, "REV_AT_EPOCH": 97204, "BSTAR": 0.0025326445, "MEAN_MOTION_DOT": 8.198e-05, "MEAN_MOTION_DDOT": 0}, "tle": {"line1": "1 30731U 99025ASR 25336.17234015  .00008198  00000+0  25326-2 0  9996", "line2": "2 30731  98.8608  55.1897 0013913 275.9762 114.0636 14.41518595972041"}}, "geometry": {"type": "Point", "coordinates": [-114.18298811406058, 47.95056272511141]}}, {"type": "Feature", "properties": {"norad_id": 30732, "name": "FENGYUN 1C DEB", "group": "fengyun-1c-debris", "lat": 33.272415224792994, "lon": -176.9243109849612, "alt_km": 878.2796923235446, "timestamp": "2025-12-02T19:35:50.834316+00:00", "meta": {"OBJECT_NAME": "FENGYUN 1C DEB", "OBJECT_ID": "1999-025ASS", "EPOCH": "2025-12-02T12:47:23.034336", "MEAN_MOTION": 14.03877776, "ECCENTRICITY": 0.0123514, "INCLINATION": 98.8048, "RA_OF_ASC_NODE": 356.9636, "ARG_OF_PERICENTER": 237.6928, "MEAN_ANOMALY": 277.1202, "EPHEMERIS_TYPE": 0, "CLASSIFICATION_TYPE": "U", "NORAD_CAT_ID": 30732, "ELEMENT_SET_NO": 999, "REV_AT_EPOCH": 96048, "BSTAR": 0.00052023, "MEAN_MOTION_DOT": 8.35e-06, "MEAN_MOTION_DDOT": 0}, "tle": {"line1": "1 30732U 99025ASS 25336.53290549  .00000835  00000+0  52023-3 0  9996", "line2": "2 30732  98.8048 356.9636 0123514 237.6928 277.1202 14.03877776960483"}}, "geometry": {"type": "Point", "coordinates": [-176.9243109849612, 33.272415224792994]}}, {"type": "Feature", "properties": {"norad_id": 30735, "name": "FENGYUN 1C DEB", "group": "fengyun-1c-debris", "lat": 23.641067874356228, "lon": 44.03880407926735, "alt_km": 826.2902126173194, "timestamp": "2025-12-02T19:35:50.834326+00:00", "meta": {"OBJECT_NAME": "FENGYUN 1C DEB", "OBJECT_ID": "1999-025ASV", "EPOCH": "2025-11-30T15:57:12.607200", "MEAN_MOTION": 14.2381964, "ECCENTRICITY": 0.00587297, "INCLINATION": 98.7656, "RA_OF_ASC_NODE": 45.767, "ARG_OF_PERICENTER": 279.9321, "MEAN_ANOMALY": 239.8889, "EPHEMERIS_TYPE": 0, "CLASSIFICATION_TYPE": "U", "NORAD_CAT_ID": 30735, "ELEMENT_SET_NO": 999, "REV_AT_EPOCH": 96576, "BSTAR": 0.0016694676, "MEAN_MOTION_DOT": 3.845e-05, "MEAN_MOTION_DDOT": 0}, "tle": {"line1": "1 30735U 99025ASV 25334.66472925  .00003845  00000+0  16695-2 0  9999", "line2": "2 30735  98.7656  45.7670 0058729 279.9321 239.8889 14.23819640965762"}}, "geometry": {"type": "Point", "coordinates": [44.03880407926735, 23.641067874356228]}}, {"type": "Feature", "properties": {"norad_id": 30736, "name": "FENGYUN 1C DEB", "group": "fengyun-1c-debris", "lat": -26.1522587581877, "lon": 20.121994352470356, "alt_km": 1090.753951198877, "timestamp": "2025-12-02T19:35:50.834337+00:00", "meta": {"OBJECT_NAME": "FENGYUN 1C DEB", "OBJECT_ID": "1999-025ASW", "EPOCH": "2025-12-02T02:21:41.486112", "MEAN_MOTION": 13.61584832, "ECCENTRICITY": 0.02814534, "INCLINATION": 98.794, "RA_OF_ASC_NODE": 15.1149, "ARG_OF_PERICENTER": 82.4102, "MEAN_ANOMALY": 335.9555, "EPHEMERIS_TYPE": 0, "CLASSIFICATION_TYPE": "U", "NORAD_CAT_ID": 30736, "ELEMENT_SET_NO": 999, "REV_AT_EPOCH": 92708, "BSTAR": 0.0022039169, "MEAN_MOTION_DOT": 2.161e-05, "MEAN_MOTION_DDOT": 0}, "tle": {"line1": "1 30736U 99025ASW 25336.09839683  .00002161  00000+0  22039-2 0  9996", "line2": "2 30736  98.7940  15.1149 0281453  82.4102 335.9555 13.61584832927081"}}, "geometry": {"type": "Point", "coordinates": [20.121994352470356, -26.1522587581877]}}, {"type": "Feature", "properties": {"norad_id": 30737, "name": "FENGYUN 1C DEB", "group": "fengyun-1c-debris", "lat": 28.905671134048138, "lon": 144.2458168363418, "alt_km": 813.1091391874243, "timestamp": "2025-12-02T19:35:50.834347+00:00", "meta": {"OBJECT_NAME": "FENGYUN 1C DEB", "OBJECT_ID": "1999-025ASX", "EPOCH": "2025-12-02T11:08:06.804960", "MEAN_MOTION": 14.18232772, "ECCENTRICITY": 0.0023602, "INCLINATION": 98.5784, "RA_OF_ASC_NODE": 319.1241, "ARG_OF_PERICENTER": 160.6166, "MEAN_ANOMALY": 350.8675, "EPHEMERIS_TYPE": 0, "CLASSIFICATION_TYPE": "U", "NORAD_CAT_ID": 30737, "ELEMENT_SET_NO": 999, "REV_AT_EPOCH": 96887, "BSTAR": 0.00039634, "MEAN_MOTION_DOT": 7.75e-06, "MEAN_MOTION_DDOT": 0}, "tle": {"line1": "1 30737U 99025ASX 25336.46396765  .00000775  00000+0  39634-3 0  9996", "line2": "2 30737  98.5784 319.1241 0023602 160.6166 350.8675 14.18232772968872"}}, "geometry": {"type": "Point", "coordinates": [144.2458168363418, 28.905671134048138]}}, {"type": "Feature", "properties": {"norad_id": 30739, "name": "FENGYUN 1C DEB", "group": "fengyun-1c-debris", "lat": 24.758864258225607, "lon": -39.839013462147555, "alt_km": 785.1425264423006, "timestamp": "2025-12-02T19:35:50.834358+00:00", "meta": {"OBJECT_NAME": "FENGYUN 1C DEB", "OBJECT_ID": "1999-025ASZ", "EPOCH": "2025-12-02T10:03:39.075264", "MEAN_MOTION": 14.1492099, "ECCENTRICITY": 0.0101148, "INCLINATION": 98.6918, "RA_OF_ASC_NODE": 323.8195, "ARG_OF_PERICENTER": 346.8201, "MEAN_ANOMALY": 174.721, "EPHEMERIS_TYPE": 0, "CLASSIFICATION_TYPE": "U", "NORAD_CAT_ID": 30739, "ELEMENT_SET_NO": 999, "REV_AT_EPOCH": 96717, "BSTAR": 0.00060152, "MEAN_MOTION_DOT": 1.178e-05, "MEAN_MOTION_DDOT": 0}, "tle": {"line1": "1 30739U 99025ASZ 25336.41920226  .00001178  00000+0  60152-3 0  9995", "line2": "2 30739  98.6918 323.8195 0101148 346.8201 174.7210 14.14920990967176"}}, "geometry": {"type": "Point", "coordinates": [-39.839013462147555, 24.758864258225607]}}]}